[{"OBJECT_NAME":"ASTROCAST-0401","OBJECT_ID":"2023-001DF","EPOCH":"2026-03-09T17:04:53.382144","MEAN_MOTION":15.26258462,"ECCENTRICITY":0.00081423,"INCLINATION":97.5547,"RA_OF_ASC_NODE":160.5206,"ARG_OF_PERICENTER":188.4231,"MEAN_ANOMALY":171.6872,"EPHEMERIS_TYPE":0,"CLASSIFICATION_TYPE":"U","NORAD_CAT_ID":55110,"ELEMENT_SET_NO":999,"REV_AT_EPOCH":17602,"BSTAR":0.00037868349,"MEAN_MOTION_DOT":9.75e-5,"MEAN_MOTION_DDOT":0},{"OBJECT_NAME":"STARLINK-31960","OBJECT_ID":"2024-106K","EPOCH":"2026-03-09T02:07:36.088032","MEAN_MOTION":15.2757336,"ECCENTRICITY":8.434e-5,"INCLINATION":42.9992,"RA_OF_ASC_NODE":335.6842,"ARG_OF_PERICENTER":285.8018,"MEAN_ANOMALY":74.274,"EPHEMERIS_TYPE":0,"CLASSIFICATION_TYPE":"U","NORAD_CAT_ID":59931,"ELEMENT_SET_NO":999,"REV_AT_EPOCH":10043,"BSTAR":-0.00012579596,"MEAN_MOTION_DOT":-3.721e-5,"MEAN_MOTION_DDOT":0}]
