ASTROCAST-0401          
1 55110U 23001DF  26068.71172895  .00009750  00000+0  37868-3 0  9995
2 55110  97.5547 160.5206 0008142 188.4231 171.6872 15.26258462176022
STARLINK-31960          
1 59931U 24106K   26068.08861213 -.00003721  00000+0 -12580-3 0  9994
2 59931  42.9992 335.6842 0000843 285.8018  74.2740 15.27573360100433
